NORAD_CAT_ID,OBJECT_NAME,OBJECT_TYPE,EPOCH,MEAN_MOTION,ECCENTRICITY,INCLINATION,RA_OF_ASC_NODE,ARG_OF_PERICENTER,MEAN_ANOMALY,BSTAR,MEAN_MOTION_DOT,MEAN_MOTION_DDOT,TLE_LINE0,TLE_LINE1,TLE_LINE2,SEMIMAJOR_AXIS,PERIOD,APOGEE,PERIGEE,DECAYED
53734.0,STARLINK-4616,PAYLOAD,2022-10-25 22:00:01,15.52720412,0.0001701,53.217,22.2605,37.8653,50.8777,-0.02012,-0.011398,0.0,0 STARLINK-4616,1 53734U 22107AL  22298.91668981 -.01139800  00000-0 -20120-1 0  9995,2 53734  53.2170  22.2605 0001701  37.8653  50.8777 15.52720412  8102,6786.924,92.74,409.944,407.635,0.0
53734.0,STARLINK-4616,PAYLOAD,2022-10-26 14:00:01,15.51052657,0.0001955,53.2177,19.066,39.285,176.0528,-0.019706,-0.01059076,0.0,0 STARLINK-4616,1 53734U 22107AL  22299.58334491 -.01059076  00000-0 -19706-1 0  9999,2 53734  53.2177  19.0660 0001955  39.2850 176.0528 15.51052657  1308,6791.788000000001,92.84,414.981,412.326,0.0
53734.0,STARLINK-4616,PAYLOAD,2022-10-26 22:00:00,15.5020582,0.0001798,53.2175,17.4697,44.1453,233.0476,-0.0084532,-0.00458412,0.0,0 STARLINK-4616,1 53734U 22107AL  22299.91667824 -.00458412  00000-0 -84532-2 0  9991,2 53734  53.2175  17.4697 0001798  44.1453 233.0476 15.50205820  1304,6794.262,92.891,417.348,414.905,0.0
53734.0,STARLINK-4616,PAYLOAD,2022-10-27 14:00:01,15.49479686,0.0001789,53.2175,14.2849,30.658,8.4029,-0.022399,-0.01130312,0.0,0 STARLINK-4616,1 53734U 22107AL  22300.58335648 -.01130312  00000-0 -22399-1 0  9992,2 53734  53.2175  14.2849 0001789  30.6580   8.4029 15.49479686  1308,6796.384,92.934,419.465,417.033,0.0
53734.0,STARLINK-4616,PAYLOAD,2022-10-27 22:00:00,15.48665039,0.0001631999999999,53.2175,12.6924,38.1796,60.7453,-0.023009,-0.01144865,0.0,0 STARLINK-4616,1 53734U 22107AL  22300.91667824 -.01144865  00000-0 -23009-1 0  9990,2 53734  53.2175  12.6924 0001632  38.1796  60.7453 15.48665039  1303,6798.767,92.983,421.742,419.523,0.0
53734.0,STARLINK-4616,PAYLOAD,2022-10-28 14:00:01,15.47051041,0.0001714,53.217,9.5174,45.2494,170.6534,-0.024751,-0.01162157,0.0,0 STARLINK-4616,1 53734U 22107AL  22301.58335648 -.01162157  00000-0 -24751-1 0  9999,2 53734  53.2170   9.5174 0001714  45.2494 170.6534 15.47051041  1307,6803.495,93.08,426.526,424.194,0.0
53734.0,STARLINK-4616,PAYLOAD,2022-10-28 22:00:01,15.46224917,0.0001619,53.2174,7.9306,38.5813,234.3229,-0.025102,-0.01146647,0.0,0 STARLINK-4616,1 53734U 22107AL  22301.91668981 -.01146647  00000-0 -25102-1 0  9992,2 53734  53.2174   7.9306 0001619  38.5813 234.3229 15.46224917  1306,6805.918000000002,93.13,428.885,426.681,0.0
53734.0,STARLINK-4616,PAYLOAD,2022-10-29 12:00:00,15.44836555,0.0001582,53.2168,5.1622,46.3473,233.8595,-0.027507,-0.01193225,0.0,0 STARLINK-4616,1 53734U 22107AL  22302.50001157 -.01193225  00000-0 -27507-1 0  9999,2 53734  53.2168   5.1622 0001582  46.3473 233.8595 15.44836555  1303,6809.995,93.214,432.93800000000016,430.783,0.0
53734.0,STARLINK-4616,PAYLOAD,2022-10-29 22:00:01,15.43780605,0.0001841,53.2173,3.1862,31.4966,46.5236,-0.02717,-0.01141605,0.0,0 STARLINK-4616,1 53734U 22107AL  22302.91668981 -.01141605  00000-0 -27170-1 0  9999,2 53734  53.2173   3.1862 0001841  31.4966  46.5236 15.43780605  1307,6813.1,93.278,436.22,433.711,0.0
53734.0,STARLINK-4616,PAYLOAD,2022-10-30 00:00:00,15.43576336,0.0001841,53.2174,2.7914,36.3184,144.9995,-0.027287,-0.01138827,0.0,0 STARLINK-4616,1 53734U 22107AL  22303.00001157 -.01138827  00000-0 -27287-1 0  9997,2 53734  53.2174   2.7914 0001841  36.3184 144.9995 15.43576336  8730,6813.701,93.29,436.821,434.312,0.0
53734.0,STARLINK-4616,PAYLOAD,2022-10-30 14:00:01,15.42153869,0.0001768,53.2173,0.0348,40.273,142.868,-0.028694,-0.01140996,0.0,0 STARLINK-4616,1 53734U 22107AL  22303.58334491 -.01140996  00000-0 -28694-1 0  9993,2 53734  53.2173   0.0348 0001768  40.2730 142.8680 15.42153869  1305,6817.891,93.376,440.961,438.55,0.0
53734.0,STARLINK-4616,PAYLOAD,2022-10-30 22:00:01,15.41340687,0.0001749,53.2175,358.4594,36.5591,197.7737,-0.029517,-0.01141979,0.0,0 STARLINK-4616,1 53734U 22107AL  22303.91668981 -.01141979  00000-0 -29517-1 0  9991,2 53734  53.2175 358.4594 0001749  36.5591 197.7737 15.41340687  1309,6820.2890000000025,93.425,443.346,440.961,0.0
53734.0,STARLINK-4616,PAYLOAD,2022-10-31 14:00:01,15.39734354,0.0001520999999999,53.217,355.3197,39.2228,294.3546,-0.032007,-0.01170911,0.0,0 STARLINK-4616,1 53734U 22107AL  22304.58334491 -.01170911  00000-0 -32007-1 0  9997,2 53734  53.2170 355.3197 0001521  39.2228 294.3546 15.39734354  1301,6825.031,93.523,447.934,445.858,0.0
53734.0,STARLINK-4616,PAYLOAD,2022-10-31 22:00:01,15.38898259,0.0001351,53.2174,353.7501,46.2034,335.6431,-0.031965,-0.01140294,0.0,0 STARLINK-4616,1 53734U 22107AL  22304.91668981 -.01140294  00000-0 -31965-1 0  9991,2 53734  53.2174 353.7501 0001351  46.2034 335.6431 15.38898259  9034,6827.503000000002,93.573,450.29,448.446,0.0
53734.0,STARLINK-4616,PAYLOAD,2022-11-01 14:00:01,15.37296487,0.0001462,53.2168,350.6219,47.856,67.3654,-0.034779,-0.01173963,0.0,0 STARLINK-4616,1 53734U 22107AL  22305.58334491 -.01173963  00000-0 -34779-1 0  9996,2 53734  53.2168 350.6219 0001462  47.8560  67.3654 15.37296487  1305,6832.245,93.671,455.109,453.111,0.0
53734.0,STARLINK-4616,PAYLOAD,2022-11-01 22:00:00,15.36455392,0.0001646,53.2174,349.0583,44.7012,115.7939,-0.034494,-0.01136464,0.0,0 STARLINK-4616,1 53734U 22107AL  22305.91667824 -.01136464  00000-0 -34494-1 0  9991,2 53734  53.2174 349.0583 0001646  44.7012 115.7939 15.36455392  9189,6834.738,93.722,457.728,455.478,0.0
53734.0,STARLINK-4616,PAYLOAD,2022-11-02 14:00:01,15.34826261,0.0001619,53.2173,345.9419,45.8932,202.1869,-0.036232,-0.01132914,0.0,0 STARLINK-4616,1 53734U 22107AL  22306.58334491 -.01132914  00000-0 -36232-1 0  9994,2 53734  53.2173 345.9419 0001619  45.8932 202.1869 15.34826261  9283,6839.574000000001,93.822,462.546,460.331,0.0
53734.0,STARLINK-4616,PAYLOAD,2022-11-02 22:00:00,15.34014144,0.0001351,53.2175,344.3838,55.3566,235.0502,-0.037299,-0.01135985,0.0,0 STARLINK-4616,1 53734U 22107AL  22306.91667824 -.01135985  00000-0 -37299-1 0  9995,2 53734  53.2175 344.3838 0001351  55.3566 235.0502 15.34014144  1308,6841.986999999999,93.871,464.777,462.92800000000005,0.0
53734.0,STARLINK-4616,PAYLOAD,2022-11-03 06:00:02,15.33223285,0.0001414,53.2167,342.8293,45.5121,286.296,-0.039423,-0.01167738,0.0,0 STARLINK-4616,1 53734U 22107AL  22307.25002315 -.01167738  00000-0 -39423-1 0  9993,2 53734  53.2167 342.8293 0001414  45.5121 286.2960 15.33223285  9384,6844.34,93.92,467.173,465.237,0.0
53734.0,STARLINK-4616,PAYLOAD,2022-11-03 14:00:01,15.3239299,0.0001547,53.2167,341.2787,41.8782,330.2431,-0.039584,-0.01144319,0.0,0 STARLINK-4616,1 53734U 22107AL  22307.58334491 -.01144319  00000-0 -39584-1 0  9990,2 53734  53.2167 341.2787 0001547  41.8782 330.2431 15.32392990  1300,6846.812,93.971,469.736,467.61800000000005,0.0
53734.0,STARLINK-4616,PAYLOAD,2022-11-03 22:00:00,15.31572477,0.0001474,53.2174,339.7265,42.7877,8.7306,-0.040277,-0.01135441,0.0,0 STARLINK-4616,1 53734U 22107AL  22307.91667824 -.01135441  00000-0 -40277-1 0  9993,2 53734  53.2174 339.7265 0001474  42.7877   8.7306 15.31572477  1302,6849.257,94.021,472.132,470.11300000000006,0.0
53734.0,STARLINK-4616,PAYLOAD,2022-11-04 14:00:01,15.29944855,0.0001705,53.2172,336.6331,42.3276,85.0407,-0.042325,-0.01134129,0.0,0 STARLINK-4616,1 53734U 22107AL  22308.58334491 -.01134129  00000-0 -42325-1 0  9996,2 53734  53.2172 336.6331 0001705  42.3276  85.0407 15.29944855  9595,6854.114000000001,94.121,477.148,474.81,0.0
53734.0,STARLINK-4616,PAYLOAD,2022-11-04 22:00:01,15.29130677,0.000176,53.2171,335.0865,39.8867,124.0059,-0.04341,-0.01134178,0.0,0 STARLINK-4616,1 53734U 22107AL  22308.91668981 -.01134178  00000-0 -43410-1 0  9997,2 53734  53.2171 335.0865 0001760  39.8867 124.0059 15.29130677  1304,6856.547,94.171,479.61800000000005,477.205,0.0
53734.0,STARLINK-4616,PAYLOAD,2022-11-05 06:00:00,15.2832421,0.0001704,53.2169,333.5443,43.7234,155.5829,-0.044939,-0.01144254,0.0,0 STARLINK-4616,1 53734U 22107AL  22309.25001157 -.01144254  00000-0 -44939-1 0  9994,2 53734  53.2169 333.5443 0001704  43.7234 155.5829 15.28324210  9697,6858.959,94.221,481.992,479.655,0.0
53734.0,STARLINK-4616,PAYLOAD,2022-11-05 14:00:01,15.27522605,0.0001598,53.2165,332.0044,46.2602,187.6061,-0.046762,-0.01175831,0.0,0 STARLINK-4616,1 53734U 22107AL  22309.58335648 -.01175831  00000-0 -46762-1 0  9996,2 53734  53.2165 332.0044 0001598  46.2602 187.6061 15.27522605  1303,6861.358,94.27,484.319,482.127,0.0
53734.0,STARLINK-4616,PAYLOAD,2022-11-05 22:00:01,15.26707242,0.0001688,53.2168,330.4636,36.1676,231.2252,-0.047789,-0.01172389,0.0,0 STARLINK-4616,1 53734U 22107AL  22309.91668981 -.01172389  00000-0 -47789-1 0  9997,2 53734  53.2168 330.4636 0001688  36.1676 231.2252 15.26707242  1303,6863.801,94.321,486.824,484.507,0.0
53734.0,STARLINK-4616,PAYLOAD,2022-11-06 06:00:00,15.25889241,0.0001483,53.2168,328.9273,47.46100000000001,252.418,-0.048771,-0.01167447,0.0,0 STARLINK-4616,1 53734U 22107AL  22310.25001157 -.01167447  00000-0 -48771-1 0  9993,2 53734  53.2168 328.9273 0001483  47.4610 252.4180 15.25889241  9849,6866.254,94.371,489.137,487.1,0.0
53734.0,STARLINK-4616,PAYLOAD,2022-11-06 14:00:01,15.25087946,0.0001608,53.2163,327.3929,36.0441,295.3969,-0.050681,-0.01182836,0.0,0 STARLINK-4616,1 53734U 22107AL  22310.58334491 -.01182836  00000-0 -50681-1 0  9991,2 53734  53.2163 327.3929 0001608  36.0441 295.3969 15.25087946  1306,6868.658,94.421,491.628,489.419,0.0
53734.0,STARLINK-4616,PAYLOAD,2022-11-07 08:00:01,15.23234429,0.000182,53.2171,323.9459,43.8081,85.1019,-0.052169,-0.01154073,0.0,0 STARLINK-4616,1 53734U 22107AL  22311.33334491 -.01154073  00000-0 -52169-1 0  9990,2 53734  53.2171 323.9459 0001820  43.8081  85.1019 15.23234429 10014,6874.229,94.536,497.345,494.843,0.0
